{"fetched_at":"2026-07-07T07:58:46.063Z","source":"https://celestrak.org/NORAD/elements/gp.php?NAME=PLEIADES&FORMAT=JSON","constellation":"pleiades","records":[{"OBJECT_NAME":"PLEIADES 1A","OBJECT_ID":"2011-076F","EPOCH":"2026-07-06T19:46:05.202912","CLASSIFICATION_TYPE":"U","MEAN_MOTION":14.58544796,"ECCENTRICITY":0.0001742,"INCLINATION":98.1966,"RA_OF_ASC_NODE":262.6625,"ARG_OF_PERICENTER":83.4025,"MEAN_ANOMALY":26.5972,"EPHEMERIS_TYPE":0,"NORAD_CAT_ID":38012,"ELEMENT_SET_NO":999,"REV_AT_EPOCH":77485,"BSTAR":0.00012248,"MEAN_MOTION_DOT":0.00000524,"MEAN_MOTION_DDOT":0},{"OBJECT_NAME":"PLEIADES 1B","OBJECT_ID":"2012-068A","EPOCH":"2026-07-06T20:04:47.881920","CLASSIFICATION_TYPE":"U","MEAN_MOTION":14.5857336,"ECCENTRICITY":0.0001648,"INCLINATION":98.1937,"RA_OF_ASC_NODE":262.6178,"ARG_OF_PERICENTER":81.9346,"MEAN_ANOMALY":278.204,"EPHEMERIS_TYPE":0,"NORAD_CAT_ID":39019,"ELEMENT_SET_NO":999,"REV_AT_EPOCH":72371,"BSTAR":0.000069995,"MEAN_MOTION_DOT":0.0000028,"MEAN_MOTION_DDOT":0}]}
