PLEIADES 1A             
1 38012U 11076F   26187.82367133  .00000524  00000+0  12248-3 0  9996
2 38012  98.1966 262.6625 0001742  83.4025  26.5972 14.58544796774855
PLEIADES 1B             
1 39019U 12068A   26187.83666530  .00000280  00000+0  69995-4 0  9991
2 39019  98.1937 262.6178 0001648  81.9346 278.2040 14.58573360723718
